GPS BIIA-23 (PRN 18)    
1 22877U 93068A   18130.51420979 -.00000001  00000-0  00000+0 0  9993
2 22877  54.4025  85.0503 0142684  74.3833 122.4425  2.00565087179798
GPS BIIR-2  (PRN 13)    
1 24876U 97035A   18130.13514456 -.00000002  00000-0  00000+0 0  9995
2 24876  55.4917 214.2607 0031969  91.1230 269.2900  2.00565213152387
GPS BIIR-3  (PRN 11)    
1 25933U 99055A   18130.53407840 -.00000050  00000-0  00000+0 0  9999
2 25933  51.8634  63.3313 0165938 100.8344 112.4098  2.00568043136207
GPS BIIR-4  (PRN 20)    
1 26360U 00025A   18130.22517493  .00000083  00000-0  00000+0 0  9990
2 26360  53.1902 141.2472 0040390 112.3509 307.1791  2.00427129131894
GPS BIIR-5  (PRN 28)    
1 26407U 00040A   18130.45045389 -.00000033  00000-0  00000+0 0  9990
2 26407  56.4997 332.3689 0197081 272.8898 267.4054  2.00563502130572
GPS BIIR-6  (PRN 14)    
1 26605U 00071A   18130.41005182  .00000003  00000-0  00000+0 0  9993
2 26605  55.0646 211.8564 0099592 248.4332 165.9495  2.00553401128172
GPS BIIR-8  (PRN 16)    
1 27663U 03005A   18130.31125688 -.00000033  00000-0  00000+0 0  9995
2 27663  56.5646 332.1303 0099292  27.9947 170.8250  2.00569401111937
GPS BIIR-9  (PRN 21)    
1 27704U 03010A   18130.40124778 -.00000002  00000-0  00000+0 0  9992
2 27704  54.0724  84.6534 0246826 270.5341 313.3823  2.00558952110735
GPS BIIR-10 (PRN 22)    
1 28129U 03058A   18130.32402972  .00000084  00000-0  00000+0 0  9991
2 28129  53.0031 144.1071 0076080 271.2682  87.9091  2.00546295105433
GPS BIIR-11 (PRN 19)    
1 28190U 04009A   18130.26129535 -.00000078  00000-0  00000+0 0  9994
2 28190  56.1575  32.9976 0096534  66.7900 244.7294  2.00559480103618
GPS BIIR-12 (PRN 23)    
1 28361U 04023A   18130.54300646  .00000012  00000-0  00000+0 0  9992
2 28361  54.0633 206.6294 0126119 225.0125 208.1660  2.00548313101707
GPS BIIR-13 (PRN 02)    
1 28474U 04045A   18130.43771747 -.00000003  00000-0  00000+0 0  9994
2 28474  54.4422  84.2506 0181243 253.6254 102.2242  2.00556531 99063
GPS BIIRM-1 (PRN 17)    
1 28874U 05038A   18130.19845786 -.00000079  00000-0  00000+0 0  9992
2 28874  56.3003  30.3056 0125824 258.4464  27.0530  2.00577879 92463
GPS BIIRM-2 (PRN 31)    
1 29486U 06042A   18130.44755522 -.00000028  00000-0  00000+0 0  9998
2 29486  55.2019 269.1798 0087864 351.1153  41.1194  2.00565723 85189
GPS BIIRM-3 (PRN 12)    
1 29601U 06052A   18129.84996985 -.00000034  00000-0  00000+0 0  9997
2 29601  56.5403 331.0656 0070034  54.6516 306.0341  2.00573185 84086
GPS BIIRM-4 (PRN 15)    
1 32260U 07047A   18129.66800460  .00000007  00000-0  00000+0 0  9998
2 32260  53.1877 202.7214 0100848  37.7497 323.0151  2.00555966 77469
GPS BIIRM-5 (PRN 29)    
1 32384U 07062A   18130.40072762 -.00000078  00000-0  00000+0 0  9991
2 32384  56.3733  30.9036 0005497  49.4450 253.9250  2.00561202 76200
GPS BIIRM-6 (PRN 07)    
1 32711U 08012A   18130.07890421 -.00000028  00000-0  00000+0 0  9999
2 32711  54.9353 268.4828 0116775 215.7025 143.4931  2.00564187 74382
GPS BIIRM-8 (PRN 05)    
1 35752U 09043A   18130.16419000  .00000086  00000-0  00000+0 0  9995
2 35752  54.3110 146.2530 0052063  32.7731  59.4728  2.00560535 63974
GPS BIIF-1  (PRN 25)    
1 36585U 10022A   18130.40706615 -.00000032  00000-0  00000+0 0  9999
2 36585  55.8326 327.6321 0073077  47.6959 321.7498  2.00566813 58228
GPS BIIF-2  (PRN 01)    
1 37753U 11036A   18130.46546627  .00000008  00000-0  00000+0 0  9996
2 37753  55.6423  87.7310 0075930  34.2495 104.4183  2.00564138 49901
GPS BIIF-3  (PRN 24)    
1 38833U 12053A   18130.26010828 -.00000031  00000-0  00000+0 0  9990
2 38833  53.9647 265.0700 0068141  29.6194 330.7452  2.00566233 40973
GPS BIIF-4  (PRN 27)    
1 39166U 13023A   18130.11674142 -.00000080  00000-0  00000+0 0  9991
2 39166  55.9986  27.2173 0058205  21.3900 338.8824  2.00562994 36503
GPS BIIF-5  (PRN 30)    
1 39533U 14008A   18130.11547439 -.00000029  00000-0  00000+0 0  9994
2 39533  54.1107 270.4200 0033730 186.3448 173.5932  2.00555399 30863
GPS BIIF-6  (PRN 06)    
1 39741U 14026A   18129.89771263  .00000007  00000-0  00000+0 0  9997
2 39741  55.6259  87.2762 0014075 292.9316  66.9000  2.00569848 29148
GPS BIIF-7  (PRN 09)    
1 40105U 14045A   18130.48897694  .00000012  00000-0  00000+0 0  9994
2 40105  54.5889 206.7160 0007573 111.1049 249.0347  2.00568651 27609
GPS BIIF-8  (PRN 03)    
1 40294U 14068A   18130.35778652  .00000090  00000-0  00000+0 0  9992
2 40294  55.0617 147.4822 0012659  14.8517 345.2402  2.00553073 25824
GPS BIIF-9  (PRN 26)    
1 40534U 15013A   18129.99627304 -.00000035  00000-0  00000+0 0  9995
2 40534  54.7755 326.4087 0027797   2.1685 357.8695  2.00566049 22880
GPS BIIF-10  (PRN 08)   
1 40730U 15033A   18130.16226626 -.00000080  00000-0  00000+0 0  9998
2 40730  55.5294  26.7389 0035951 330.8379  28.9927  2.00576909 20644
GPS BIIF-11  (PRN 10)   
1 41019U 15062A   18130.20972919  .00000089  00000-0  00000+0 0  9997
2 41019  55.0673 147.2895 0036052 205.9392 153.9334  2.00564409 18462
GPS BIIF-12  (PRN 32)   
1 41328U 16007A   18129.79862765  .00000004  00000-0  00000+0 0  9996
2 41328  54.8402 207.0231 0022021 217.1705 142.7334  2.00564693 16510
